GLOBALSTAR M001         
1 25162U 98008A   24157.96315278 -.00000084  00000+0  95959-4 0  9994
2 25162  52.0052 348.2325 0001934 148.7437  16.5260 12.38184705197107
GLOBALSTAR M004         
1 25163U 98008B   24157.67318023 -.00000095  00000+0  50501-4 0  9990
2 25163  51.9983 122.7755 0002724 171.0919   0.7761 12.63361108214094
GLOBALSTAR M002         
1 25164U 98008C   24157.57699713 -.00000094  00000+0 -34420-3 0  9999
2 25164  52.0006 104.4832 0000916 164.8071 195.2776 11.61502865140375
GLOBALSTAR M003         
1 25165U 98008D   24158.22555880  .00000033  00000+0  13054-2 0  9999
2 25165  51.9855 129.7881 0007862 257.7556 115.2877 12.12008260187728
GLOBALSTAR M014         
1 25306U 98023A   24157.94977564 -.00000088  00000+0 -19322-3 0  9995
2 25306  51.9866  34.6839 0001527  44.4446 328.6371 11.65467917147309
GLOBALSTAR M006         
1 25307U 98023B   24158.08376615 -.00000050  00000+0  52591-3 0  9995
2 25307  51.9952  72.7607 0003616 139.2105 234.3112 11.58164989173364
GLOBALSTAR M015         
1 25308U 98023C   24157.92508897 -.00000054  00000+0  43413-3 0  9994
2 25308  51.9781 154.3830 0012355 127.8286 299.5233 11.48853035150833
GLOBALSTAR M008         
1 25309U 98023D   24157.91670355 -.00000061  00000+0  27712-3 0  9995
2 25309  51.9950 208.9360 0002656 108.7305  62.1833 12.36043494191315
